STARLINK-2022           
1 47643U 21012Z   23198.07797988  .00017037  00000+0  11591-2 0  9994
2 47643  53.0548  70.9120 0001110  83.2975 276.8140 15.06424105134056
